0 FENGYUN 1C DEB
1 32408U 99025CZU 13283.06970332  .00002391  00000-0  49869-3 0  1333
2 32408 098.8089 025.1230 0279485 200.8387 158.1708 14.39289283329886
0 FENGYUN 1C DEB
1 32408U 99025CZU 13287.51896804  .00003025  00000-0  64575-3 0  1356
2 32408 098.7850 029.6637 0270309 189.2591 170.4716 14.39326370330522
0 FENGYUN 1C DEB
1 32408U 99025CZU 13289.04835818  .00003342  00000-0  70550-3 0  1367
2 32408 098.7984 031.2591 0272982 183.7256 176.3081 14.39342769330748
0 FENGYUN 1C DEB
1 32408U 99025CZU 13290.09110601  .00003420  00000-0  69440-3 0  1374
2 32408 098.8136 032.3428 0284623 180.1005 180.1331 14.39350996330895
0 FENGYUN 1C DEB
1 32408U 99025CZU 13291.06433189  .00003716  00000-0  76623-3 0  1381
2 32408 098.8040 033.3379 0279443 177.2875 183.0113 14.39363429331033
0 FENGYUN 1C DEB
1 32408U 99025CZU 13293.08031752  .00004307  00000-0  90763-3 0  1394
2 32408 098.8022 035.4353 0271844 170.0554 190.5846 14.39388773331327
0 FENGYUN 1C DEB
1 32408U 99025CZU 13295.51336257  .00004740  00000-0  10013-2 0  1404
2 32408 098.7870 037.8998 0270446 164.4496 196.7783 14.39420221331678
